ONEWEB-0607             
1 54671U 22166AF  25199.22880804  .00000000  00000+0 -30324-4 0  9994
2 54671  87.9274 310.5891 0001963 104.8683 255.2669 13.21823501127885
ONEWEB-0608             
1 54672U 22166AG  25199.23512889 -.00000022  00000+0 -84315-4 0  9995
2 54672  87.9264 310.5748 0001905 116.9529 243.1799 13.21826485127890
ONEWEB-0610             
1 54673U 22166AH  25199.36758826  .00000013  00000+0 -92678-6 0  9995
2 54673  87.9276 310.5815 0001763 113.0247 247.1073 13.21826480127823
ONEWEB-0611             
1 54674U 22166AJ  25199.36128393  .00000002  00000+0 -27462-4 0  9991
2 54674  87.9276 310.5795 0002109  94.1274 266.0101 13.21825027127812
ONEWEB-0612             
1 54675U 22166AK  25199.22250215 -.00000001  00000+0 -34742-4 0  9995
2 54675  87.9277 310.5844 0001904 106.2041 253.9303 13.21824792127781
ONEWEB-0615             
1 54676U 22166AL  25198.74941283  .00000090  00000+0  18580-3 0  9991
2 54676  87.9277 310.7051 0002019  99.6174 260.5188 13.21826239127260
ONEWEB-0655             
1 54677U 22166AM  25199.25246394  .00000074  00000+0  14750-3 0  9997
2 54677  87.9276 310.6093 0002247 105.5456 254.5926 13.21828025127794
ONEWEB-0659             
1 54678U 22166AN  25199.57260078  .00000023  00000+0  23414-4 0  9990
2 54678  87.9275 310.5467 0001881  96.3647 263.7701 13.21825229127921
